$$SOE
2460154.500000000, A.D. 2023-Jul-29 00:00:00.0000, 4.966242225719084E+08, -4.300582716556154E+07, -2.589163069355588E+07,
2460161.500000000, A.D. 2023-Aug-05 00:00:00.0000, 5.031601501617650E+08, -3.756916871710543E+07, -2.408359936514948E+07,
2460168.500000000, A.D. 2023-Aug-12 00:00:00.0000, 5.095065448767035E+08, -3.211816139813669E+07, -2.226648540236760E+07,
2460175.500000000, A.D. 2023-Aug-19 00:00:00.0000, 5.156675456229307E+08, -2.665527105459357E+07, -2.044126001830041E+07,
2460182.500000000, A.D. 2023-Aug-26 00:00:00.0000, 5.216471057523157E+08, -2.118280709619666E+07, -1.860883426930067E+07,
2460189.500000000, A.D. 2023-Sep-02 00:00:00.0000, 5.274490038937036E+08, -1.570293579309952E+07, -1.677006404419244E+07,
2460196.500000000, A.D. 2023-Sep-09 00:00:00.0000, 5.330768540267580E+08, -1.021769236761665E+07, -1.492575457678492E+07,
2460203.500000000, A.D. 2023-Sep-16 00:00:00.0000, 5.385341150264536E+08, -4.728992090133816E+06, -1.307666455730046E+07,
2460210.500000000, A.D. 2023-Sep-23 00:00:00.0000, 5.438241001492671E+08, 7.613597767373435E+05, -1.122350990583114E+07,
2460217.500000000, A.D. 2023-Sep-30 00:00:00.0000, 5.489499861724166E+08, 6.251660263308337E+06, -9.366967121581081E+06,
2460224.500000000, A.D. 2023-Oct-07 00:00:00.0000, 5.539148198814474E+08, 1.174030256541122E+07, -7.507676073235096E+06,
2460231.500000000, A.D. 2023-Oct-14 00:00:00.0000, 5.587215229916917E+08, 1.722576810266612E+07, -5.646242628958197E+06,
2460238.500000000, A.D. 2023-Oct-21 00:00:00.0000, 5.633728987720884E+08, 2.270661828670818E+07, -3.783241319640386E+06,
2460245.500000000, A.D. 2023-Oct-28 00:00:00.0000, 5.678716389831049E+08, 2.818148819099519E+07, -1.919217744989317E+06,
2460252.500000000, A.D. 2023-Nov-04 00:00:00.0000, 5.722203299122061E+08, 3.364908129131096E+07, -5.469069272689521E+04,
2460259.500000000, A.D. 2023-Nov-11 00:00:00.0000, 5.764214577149806E+08, 3.910816462341553E+07, 1.809845944404911E+06,
2460266.500000000, A.D. 2023-Nov-18 00:00:00.0000, 5.804774133091841E+08, 4.455756424599741E+07, 3.673921411261443E+06,
2460273.500000000, A.D. 2023-Nov-25 00:00:00.0000, 5.843904969198874E+08, 4.999616098936666E+07, 5.537086472441036E+06,
2460280.500000000, A.D. 2023-Dec-02 00:00:00.0000, 5.881629223271979E+08, 5.542288644128271E+07, 7.398911916859247E+06,
2460287.500000000, A.D. 2023-Dec-09 00:00:00.0000, 5.917968209157997E+08, 6.083671907765605E+07, 9.258987160624299E+06,
2460294.500000000, A.D. 2023-Dec-16 00:00:00.0000, 5.952942458334230E+08, 6.623668052080464E+07, 1.111691891190621E+07,
2460301.500000000, A.D. 2023-Dec-23 00:00:00.0000, 5.986571766242604E+08, 7.162183258606747E+07, 1.297232991210097E+07,
2460308.500000000, A.D. 2023-Dec-30 00:00:00.0000, 6.018875230133605E+08, 7.699127614274581E+07, 1.482485795305883E+07,
2460315.500000000, A.D. 2024-Jan-06 00:00:00.0000, 6.049871260856497E+08, 8.234414940779267E+07, 1.667415513205668E+07,
2460322.500000000, A.D. 2024-Jan-13 00:00:00.0000, 6.079577600470371E+08, 8.767962384575249E+07, 1.851988689851557E+07,
2460329.500000000, A.D. 2024-Jan-20 00:00:00.0000, 6.108011358036149E+08, 9.299690074203010E+07, 2.036173102559449E+07,
2460336.500000000, A.D. 2024-Jan-27 00:00:00.0000, 6.135189043419117E+08, 9.829520908641225E+07, 2.219937674002164E+07,
2460343.500000000, A.D. 2024-Feb-03 00:00:00.0000, 6.161126594930362E+08, 1.035738038044256E+08, 2.403252396651837E+07,
2460350.500000000, A.D. 2024-Feb-10 00:00:00.0000, 6.185839403684688E+08, 1.088319640328478E+08, 2.586088263268305E+07,
2460357.500000000, A.D. 2024-Feb-17 00:00:00.0000, 6.209342336157526E+08, 1.140689914359160E+08, 2.768417201783571E+07,
2460364.500000000, A.D. 2024-Feb-24 00:00:00.0000, 6.231649755388685E+08, 1.192842085667313E+08, 2.950212013974191E+07,
2460371.500000000, A.D. 2024-Mar-02 00:00:00.0000, 6.252775541208621E+08, 1.244769572320142E+08, 3.131446317027221E+07,
2460378.500000000, A.D. 2024-Mar-09 00:00:00.0000, 6.272733110951848E+08, 1.296465967888236E+08, 3.312094485887704E+07,
2460385.500000000, A.D. 2024-Mar-16 00:00:00.0000, 6.291535444680098E+08, 1.347925025626192E+08, 3.492131594077015E+07,
2460392.500000000, A.D. 2024-Mar-23 00:00:00.0000, 6.309195113940499E+08, 1.399140654886302E+08, 3.671533362722798E+07,
2460399.500000000, A.D. 2024-Mar-30 00:00:00.0000, 6.325724291706576E+08, 1.450106929437375E+08, 3.850276137900006E+07,
2460406.500000000, A.D. 2024-Apr-06 00:00:00.0000, 6.341134746125883E+08, 1.500818073955421E+08, 4.028336866205391E+07,
2460413.500000000, A.D. 2024-Apr-13 00:00:00.0000, 6.355437853639374E+08, 1.551268436991467E+08, 4.205693042625111E+07,
2460420.500000000, A.D. 2024-Apr-20 00:00:00.0000, 6.368644621993580E+08, 1.601452477130750E+08, 4.382322661110394E+07,
2460427.500000000, A.D. 2024-Apr-27 00:00:00.0000, 6.380765708016024E+08, 1.651364756684248E+08, 4.558204177017445E+07,
2460434.500000000, A.D. 2024-May-04 00:00:00.0000, 6.391811431071651E+08, 1.700999935838357E+08, 4.733316474702679E+07,
2460441.500000000, A.D. 2024-May-11 00:00:00.0000, 6.401791784619281E+08, 1.750352766209882E+08, 4.907638837116389E+07,
2460448.500000000, A.D. 2024-May-18 00:00:00.0000, 6.410716446722164E+08, 1.799418083993249E+08, 5.081150916698731E+07,
2460455.500000000, A.D. 2024-May-25 00:00:00.0000, 6.418594789794230E+08, 1.848190802603397E+08, 5.253832707191768E+07,
2460462.500000000, A.D. 2024-Jun-01 00:00:00.0000, 6.425435890215262E+08, 1.896665904216376E+08, 5.425664515265247E+07,
2460469.500000000, A.D. 2024-Jun-08 00:00:00.0000, 6.431248540311968E+08, 1.944838429954074E+08, 5.596626929435955E+07,
2460476.500000000, A.D. 2024-Jun-15 00:00:00.0000, 6.436041266729119E+08, 1.992703474138904E+08, 5.766700787000890E+07,
2460483.500000000, A.D. 2024-Jun-22 00:00:00.0000, 6.439822345161211E+08, 2.040256194347566E+08, 5.935867157740954E+07,
2460490.500000000, A.D. 2024-Jun-29 00:00:00.0000, 6.442599790252926E+08, 2.087491819038662E+08, 6.104107348924442E+07,
2460497.500000000, A.D. 2024-Jul-06 00:00:00.0000, 6.444381347145784E+08, 2.134405628023624E+08, 6.271402887107682E+07,
2460504.500000000, A.D. 2024-Jul-13 00:00:00.0000, 6.445174504182820E+08, 2.180992933999992E+08, 6.437735481867953E+07,
2460511.500000000, A.D. 2024-Jul-20 00:00:00.0000, 6.444986506929799E+08, 2.227249076616361E+08, 6.603086999003014E+07,
2460518.500000000, A.D. 2024-Jul-27 00:00:00.0000, 6.443824366969887E+08, 2.273169419459638E+08, 6.767439441310427E+07,
2460525.500000000, A.D. 2024-Aug-03 00:00:00.0000, 6.441694868218136E+08, 2.318749346201460E+08, 6.930774931313723E+07,
2460532.500000000, A.D. 2024-Aug-10 00:00:00.0000, 6.438604572429634E+08, 2.363984255847191E+08, 7.093075694309226E+07,
2460539.500000000, A.D. 2024-Aug-17 00:00:00.0000, 6.434559824389750E+08, 2.408869557294468E+08, 7.254324041405642E+07,
2460546.500000000, A.D. 2024-Aug-24 00:00:00.0000, 6.429566757079368E+08, 2.453400662970023E+08, 7.414502352047475E+07,
2460553.500000000, A.D. 2024-Aug-31 00:00:00.0000, 6.423631297985548E+08, 2.497572980921758E+08, 7.573593054389076E+07,
2460560.500000000, A.D. 2024-Sep-07 00:00:00.0000, 6.416759180225885E+08, 2.541381906620965E+08, 7.731578601129356E+07,
2460567.500000000, A.D. 2024-Sep-14 00:00:00.0000, 6.408955959349236E+08, 2.584822824423606E+08, 7.888441448091236E+07,
2460574.500000000, A.D. 2024-Sep-21 00:00:00.0000, 6.400227015532038E+08, 2.627891122809271E+08, 8.044164057460324E+07,
2460581.500000000, A.D. 2024-Sep-28 00:00:00.0000, 6.390577536308160E+08, 2.670582191116452E+08, 8.198728903732684E+07,
2460588.500000000, A.D. 2024-Oct-05 00:00:00.0000, 6.380012516543231E+08, 2.712891397781291E+08, 8.352118448680076E+07,
2460595.500000000, A.D. 2024-Oct-12 00:00:00.0000, 6.368536772053972E+08, 2.754814079869891E+08, 8.504315112939648E+07,
2460602.500000000, A.D. 2024-Oct-19 00:00:00.0000, 6.356154949369034E+08, 2.796345541188874E+08, 8.655301258030494E+07,
2460609.500000000, A.D. 2024-Oct-26 00:00:00.0000, 6.342871531315413E+08, 2.837481050954812E+08, 8.805059172510064E+07,
2460616.500000000, A.D. 2024-Nov-02 00:00:00.0000, 6.328690841012591E+08, 2.878215841534046E+08, 8.953571058668084E+07,
2460623.500000000, A.D. 2024-Nov-09 00:00:00.0000, 6.313617045249563E+08, 2.918545105455862E+08, 9.100819019015393E+07,
2460630.500000000, A.D. 2024-Nov-16 00:00:00.0000, 6.297654157513334E+08, 2.958463991698008E+08, 9.246785042311002E+07,
2460637.500000000, A.D. 2024-Nov-23 00:00:00.0000, 6.280806041148092E+08, 2.997967600741544E+08, 9.391450988272001E+07,
2460644.500000000, A.D. 2024-Nov-30 00:00:00.0000, 6.263076414737965E+08, 3.037050977963293E+08, 9.534798568691781E+07,
2460651.500000000, A.D. 2024-Dec-07 00:00:00.0000, 6.244468863916153E+08, 3.075709109564440E+08, 9.676809324538168E+07,
2460658.500000000, A.D. 2024-Dec-14 00:00:00.0000, 6.224986852717906E+08, 3.113936933265821E+08, 9.817464615322562E+07,
2460665.500000000, A.D. 2024-Dec-21 00:00:00.0000, 6.204633711293863E+08, 3.151729351356549E+08, 9.956745631847364E+07,
2460672.500000000, A.D. 2024-Dec-28 00:00:00.0000, 6.183412619715714E+08, 3.189081216418350E+08, 1.009463338998728E+08,
2460679.500000000, A.D. 2025-Jan-04 00:00:00.0000, 6.161326613852260E+08, 3.225987313478997E+08, 1.023110870108851E+08,
2460686.500000000, A.D. 2025-Jan-11 00:00:00.0000, 6.138378595105363E+08, 3.262442355186033E+08, 1.036615214924146E+08,
2460693.500000000, A.D. 2025-Jan-18 00:00:00.0000, 6.114571334841251E+08, 3.298440980808070E+08, 1.049974407632916E+08,
2460700.500000000, A.D. 2025-Jan-25 00:00:00.0000, 6.089907475959576E+08, 3.333977754312654E+08, 1.063186456874702E+08,
2460707.500000000, A.D. 2025-Feb-01 00:00:00.0000, 6.064389533502991E+08, 3.369047161212251E+08, 1.076249344381439E+08,
2460714.500000000, A.D. 2025-Feb-08 00:00:00.0000, 6.038019894898075E+08, 3.403643604366562E+08, 1.089161023550220E+08,
2460721.500000000, A.D. 2025-Feb-15 00:00:00.0000, 6.010800820121311E+08, 3.437761398532000E+08, 1.101919417904035E+08,
2460728.500000000, A.D. 2025-Feb-22 00:00:00.0000, 5.982734442786779E+08, 3.471394763009766E+08, 1.114522419295717E+08,
$$EOE